# From MPC106342
C/1995 O1 (Hale-Bopp),e,89.1840,282.9504,130.4365,177.4993,0.0004168,0.99496690,0.0000,03/29.7103/1997,2000,g -2.0,4.0
# From NK 1615
P/1996 R2 (Lagerkvist),e,2.6008,40.0117,333.3591,3.774876,0.1343847,0.31442673,151.8106,03/18.0/2022,2000,g 11.5,4.0
# From MPEC 2022-C56
C/1997 J2 (Meunier-Dupouy),h,03/05.0020/1998,91.2681,148.2948,122.6283,1.000240,3.062018,2000,3.5,4.0
# From MPEC 2022-C56
C/1997 T1 (Utsunomiya),h,06/18.2715/2022,51.9579,234.1014,278.3511,1.016754,0.805134,2000,8.0,4.0
# From MPC 75703
P/1998 VS24 (LINEAR),e,5.0265,159.0390,244.6055,4.526747,0.1023351,0.24275259,155.4516,03/18.0/2022,2000,g 13.0,2.0
# From NK 731
P/1999 RO28 (LONEOS),e,7.5667,137.8819,231.2753,3.426656,0.1553811,0.67242022,154.6701,03/18.0/2022,2000,g 20.0,2.0
# From MPC 75704
P/1999 XN120 (Catalina),e,5.0297,285.2962,161.7444,4.179013,0.1153702,0.21026132,201.1354,03/18.0/2022,2000,g 13.5,2.0
# From NK 744
P/2000 R2 (LINEAR),e,11.6871,160.2856,176.5689,3.467294,0.1526575,0.53155027,153.3151,03/18.0/2022,2000,g 18.0,4.0
# From MPC 43019
P/2001 H5 (NEAT),e,8.3672,328.6849,224.7933,6.096676,0.0654733,0.59826038,153.5246,03/18.0/2022,2000,g 12.0,4.0
# From MPC 75704
P/2001 Q6 (NEAT),e,56.9113,22.1769,42.9316,7.956089,0.0439192,0.82318571,328.7062,03/18.0/2022,2000,g 13.5,4.0
# From MPC 47727
P/2002 EJ57 (LINEAR),e,4.9766,330.3198,167.3210,6.466606,0.0599362,0.59228734,82.0804,03/18.0/2022,2000,g 12.5,4.0
# From MPC109588
P/2002 T6 (NEAT-LINEAR),e,10.8452,206.1287,219.6416,7.706680,0.0460684,0.56157449,320.5703,03/18.0/2022,2000,g 10.5,4.0
# From MPC 75007
C/2002 VQ94 (LINEAR),e,70.6577,35.1050,100.0510,184.4896,0.0003933,0.96303838,2.3177,03/18.0/2022,2000,g  9.5,2.0
# From MPC 50354
P/2003 F2 (NEAT),e,11.6088,359.0059,192.2340,6.502875,0.0594355,0.54178068,50.9031,03/18.0/2022,2000,g 16.5,2.0
# From MPC 50139
P/2003 QX29 (NEAT),e,11.3914,264.5386,37.5919,8.021223,0.0433854,0.47281473,306.3322,03/18.0/2022,2000,g  8.5,4.0
# From MPC105235
P/2003 T12 (SOHO),e,11.0217,174.5830,219.7467,2.585735,0.2370435,0.76996396,161.1810,03/18.0/2022,2000,g 17.0,4.0
# From MPC 82312
P/2004 A1 (LONEOS),e,10.5517,124.8549,21.1716,7.966650,0.0438319,0.30961387,282.4853,03/18.0/2022,2000,g  6.5,4.0
# From MPC 54558
P/2004 DO29 (Spacewatch-LINEAR),e,14.5321,147.3736,40.5821,7.290712,0.0500667,0.44113267,319.4867,03/18.0/2022,2000,g 13.5,2.0
# From MPC 54823
P/2004 FY140 (LINEAR),e,2.1348,326.7702,242.2525,4.905254,0.0907218,0.16795738,220.7397,03/18.0/2022,2000,g 12.5,2.0
# From MPEC 2022-D36
C/2004 HV60 (Spacewatch),e,92.4316,45.0935,148.0485,48.28037,0.0029380,0.93582901,19.5968,03/18.0/2022,2000,g 13.0,4.0
# From MPC 53304
P/2004 R3 (LINEAR-NEAT),e,12.7837,305.3735,37.8046,4.772810,0.0945242,0.25686718,16.7605,03/18.0/2022,2000,g 14.5,4.0
# From MPC 55521
P/2004 V3 (Siding Spring),e,50.4434,356.1290,322.4277,7.134939,0.0517153,0.44616373,328.2123,03/18.0/2022,2000,g 11.5,4.0
# From MPC 75705
P/2004 V5 (LINEAR-Hill),e,19.3405,47.7892,87.6239,7.984471,0.0436852,0.44409162,273.6261,03/18.0/2022,2000,g  8.0,4.0
# From MPC 54164
P/2005 E1 (Tubbiolo),e,4.2636,335.5708,193.9593,7.045723,0.0527006,0.37530745,330.4937,03/18.0/2022,2000,g 10.0,4.0
# From MPC 54823
P/2005 GF8 (LONEOS),e,1.1826,314.4408,284.5541,5.799015,0.0705786,0.51691936,63.7804,03/18.0/2022,2000,g 11.5,4.0
# From MPC 79019
P/2005 J1 (McNaught),e,31.7494,268.8229,338.9500,3.571218,0.1460426,0.56926184,182.9924,03/18.0/2022,2000,g 16.5,4.0
# From MPC 74246
P/2005 L1 (McNaught),e,7.7379,138.2492,149.7811,3.980321,0.1241158,0.21045198,16.7513,03/18.0/2022,2000,g  9.5,4.0
# From MPC 75706
P/2005 S2 (Skiff),e,3.1357,161.2196,229.2736,8.009928,0.0434772,0.19809231,251.4940,03/18.0/2022,2000,g  7.5,4.0
# From MPC 75706
P/2005 SB216 (LONEOS),e,24.1043,1.1422,83.2980,7.139380,0.0516670,0.46421446,287.6345,03/18.0/2022,2000,g 12.0,2.0
# From MPC 73461
P/2005 T3 (Read),e,6.2235,27.6900,6.6941,7.586582,0.0471666,0.17499310,283.9882,03/18.0/2022,2000,g  9.0,4.0
# From MPC 73461
P/2005 T4 (SWAN),e,160.2469,25.8538,41.7638,9.360558,0.0344153,0.92971547,206.7908,03/18.0/2022,2000,g 15.0,4.0
# From MPC 75706
P/2005 T5 (Broughton),e,21.3716,56.9994,304.6343,7.285100,0.0501246,0.55258223,300.6454,03/18.0/2022,2000,g 11.0,4.0
# From MPC 75706
P/2005 Y2 (McNaught),e,19.0452,94.2413,193.7567,6.352375,0.0615602,0.46879198,31.7689,03/18.0/2022,2000,g  9.0,4.0
# From MPC 56954
P/2006 F4 (Spacewatch),e,12.4466,183.8275,30.6951,3.515273,0.1495428,0.34170895,143.2957,03/18.0/2022,2000,g 15.0,4.0
# From MPC 75707
P/2006 HR30 (Siding Spring),e,31.8429,309.8715,117.3272,7.810202,0.0451555,0.84275041,251.7110,03/18.0/2022,2000,g 11.0,4.0
# From MPC 75707
P/2007 A2 (Christensen),e,26.4872,300.9112,186.7100,6.333048,0.0618422,0.55809944,344.1626,03/18.0/2022,2000,g 13.5,4.0
# From MPC 75707
P/2007 C2 (Catalina),e,8.6155,275.3768,180.1419,6.994871,0.0532764,0.47165008,281.8309,03/18.0/2022,2000,g 10.0,4.0
# From MPC 84315
C/2007 D1 (LINEAR),e,41.5016,171.2314,339.8926,1269,0.0000218,0.99306143,0.0000,06/07.3562/2007,2000,g  3.5,4.0
# From MPC 82314
P/2007 K2 (Gibbs),e,7.6286,188.6368,347.3900,7.270776,0.0502728,0.68297380,272.0772,03/18.0/2022,2000,g 14.0,4.0
# From MPC 60925
P/2007 Q2 (Gilmore),e,10.2026,172.1554,162.8150,5.654970,0.0732923,0.67010664,34.8878,03/18.0/2022,2000,g 16.0,4.0
# From MPC 73462
P/2007 S1 (Zhao),e,5.9634,141.3697,245.3152,3.822987,0.1318560,0.33978831,333.1984,03/18.0/2022,2000,g 13.0,4.0
# From MPC 61994
P/2007 T2 (Kowalski),e,9.7517,3.3767,359.6504,3.046320,0.1853706,0.78559643,247.0022,03/18.0/2022,2000,g 18.5,4.0
# From MPC 75709
P/2008 L2 (Hill),e,25.8673,218.0152,141.2499,6.027416,0.0666051,0.61335989,332.0886,03/18.0/2022,2000,g 12.5,4.0
# From MPC 64114
P/2008 O3 (Boattini),e,32.3075,47.5718,341.1354,8.217998,0.0418365,0.69603060,210.9180,03/18.0/2022,2000,g 13.0,4.0
# From MPC 75710
P/2008 Y3 (McNaught),e,38.7739,262.8308,238.1099,8.047603,0.0431722,0.44558825,208.8820,03/18.0/2022,2000,g  8.5,4.0
# From MPC 75710
P/2009 B1 (Boattini),e,22.2274,297.0817,128.8813,6.737513,0.0563579,0.63527543,271.7255,03/18.0/2022,2000,g 13.0,4.0
# From MPC 66466
C/2009 G1 (STEREO),e,108.6305,120.4958,175.4750,454.5464,0.0001017,0.99749446,0.0000,04/17.2811/2009,2000,g  9.0,4.0
# From MPC 75710
P/2009 O3 (Hill),e,16.2846,183.6893,154.4641,7.767713,0.0455265,0.68786239,212.9936,03/18.0/2022,2000,g 12.5,4.0
# From MPC 68902
P/2009 Q5 (McNaught),e,40.9884,160.2796,209.0654,7.432528,0.0486406,0.60956511,222.3869,03/18.0/2022,2000,g 10.0,4.0
# From MPC112389
P/2009 T2 (La Sagra),e,27.5895,215.8674,216.3430,7.720845,0.0459417,0.76595411,205.0196,03/18.0/2022,2000,g 14.0,4.0
# From MPC105235
P/2009 WX51 (Catalina),e,9.5936,31.6011,118.2202,3.082574,0.1821100,0.73979517,88.6545,03/18.0/2022,2000,g 19.0,2.0
# From MPC 74247
P/2009 Y2 (Kowalski),e,29.9484,262.0329,172.1315,6.550193,0.0587926,0.63643056,258.8169,03/18.0/2022,2000,g 13.0,4.0
# From MPC 75711
P/2010 A3 (Hill),e,14.8204,63.7029,42.2432,6.082896,0.0656959,0.73362182,288.3814,03/18.0/2022,2000,g 14.0,4.0
# From MPC 75008
P/2010 C1 (Scotti),e,9.1280,141.8854,3.5123,7.103853,0.0520551,0.25958338,235.0201,03/18.0/2022,2000,g  9.5,4.0
# From MPC 75008
P/2010 D2 (WISE),e,57.0912,319.8871,119.9713,6.719390,0.0565860,0.45123867,250.1804,03/18.0/2022,2000,g 16.0,4.0
# From MPC 75009
P/2010 E2 (Jarnac),e,15.3873,177.8210,8.3321,8.639955,0.0388094,0.71954512,169.7281,03/18.0/2022,2000,g 14.0,4.0
# From MPC 72851
P/2010 H2 (Vales),e,14.2768,64.1890,128.0390,3.832629,0.1313587,0.19627505,216.9891,03/18.0/2022,2000,g  6.0,4.0
# From MPC 70361
P/2010 H3 (SOHO),e,23.0612,77.0818,26.1633,3.036766,0.1862460,0.98535186,0.0000,02/07.9191/2021,2000,g 20.0,2.0
# From MPC 73463
P/2010 H4 (Scotti),e,2.3179,44.7302,179.4299,6.596370,0.0581764,0.26651057,249.9788,03/18.0/2022,2000,g 10.5,4.0
# From MPC 74637
P/2010 H5 (Scotti),e,14.0589,24.7978,174.9515,7.167202,0.0513665,0.15269072,224.7328,03/18.0/2022,2000,g 13.0,2.0
# From MPC 98558
P/2010 J3 (McMillan),e,13.2755,106.4439,157.5948,8.977169,0.0366433,0.72616840,154.6467,03/18.0/2022,2000,g 11.0,4.0
# From MPC 84315
P/2010 JC81 (WISE),e,38.7960,30.8603,12.4238,8.107397,0.0426955,0.77753774,170.0384,03/18.0/2022,2000,g  9.0,4.0
# From MPC 74248
P/2010 T2 (PANSTARRS),e,7.8873,58.6778,352.9686,5.551228,0.0753565,0.32228151,304.8522,03/18.0/2022,2000,g 11.5,4.0
# From MPC 98558
P/2010 TO20 (LINEAR-Grauer),e,2.4788,43.2880,267.1647,5.832362,0.0699741,0.05548179,342.4218,03/18.0/2022,2000,g  9.0,4.0
# From MPC 82316
P/2010 U1 (Boattini),e,8.2176,280.6917,86.1152,6.505348,0.0594016,0.24891184,263.0491,03/18.0/2022,2000,g  9.5,4.0
# From MPEC 2021-R75
C/2010 U3 (Boattini),e,55.5429,43.0041,88.0397,2470,0.0000080,0.99658117,0.0000,02/25.1797/2019,2000,g  1.0,4.0
# From MPC 79021
P/2010 UH55 (Spacewatch),e,8.0389,232.9156,225.1541,6.654248,0.0574190,0.56347580,229.5927,03/18.0/2022,2000,g 11.0,4.0
# From MPC 75009
P/2010 WK (LINEAR),e,11.4016,11.3321,40.9682,5.762185,0.0712563,0.69028518,298.9624,03/18.0/2022,2000,g 14.5,2.0
# From MPC 84021
P/2011 C2 (Gibbs),e,10.8864,12.1215,160.6910,7.412728,0.0488357,0.26900230,182.5178,03/18.0/2022,2000,g  9.0,4.0
# From MPC 79866
P/2011 FR143 (Lemmon),e,15.9769,190.9499,350.0084,6.861453,0.0548378,0.45052652,221.6201,03/18.0/2022,2000,g 14.0,2.0
# From MPC 82317
P/2011 JB15 (Spacewatch-Boattini),e,19.1475,153.5815,111.0715,7.362129,0.0493400,0.31669901,183.0352,03/18.0/2022,2000,g  9.0,4.0
# From MPC 87913
P/2011 N1 (ASH),e,35.7474,77.5835,330.3568,6.246671,0.0631293,0.54461243,226.5257,03/18.0/2022,2000,g 11.5,4.0
# From MPC 75714
P/2011 NO1 (Elenin),e,15.2458,295.8195,263.7377,5.528460,0.0758225,0.77454356,309.2670,03/18.0/2022,2000,g 15.0,4.0
# From MPEC 2022-ED3
P/2011 P1 (McNaught),e,5.6609,4.2315,349.0709,7.461247,0.0483601,0.32752373,205.5672,03/18.0/2022,2000,g  9.0,4.0
# From MPC 77806
P/2011 Q3 (McNaught),e,6.0573,32.0247,310.9878,4.972886,0.0888774,0.53300087,346.2801,03/18.0/2022,2000,g 13.5,4.0
# From MPC 98558
